{
  "type": "FeatureCollection",
  "features": [
    {
      "type": "Feature",
      "properties": {
        "norad_id": 37006,
        "name": "FENGYUN 1C DEB",
        "group": "fengyun-1c-debris",
        "lat": 23.174575965430606,
        "lon": -126.88880457493755,
        "alt_km": 866.5712636782555,
        "timestamp": "2025-12-14T09:36:23.325759+00:00",
        "meta_object_name": "FENGYUN 1C DEB",
        "meta_object_id": "1999-025ECN",
        "meta_epoch": "2025-12-10T22:37:30.880992",
        "meta_mean_motion": 14.4887235,
        "meta_eccentricity": 0.0255426,
        "meta_inclination": 99.2978,
        "meta_ra_of_asc_node": 233.3229,
        "meta_arg_of_pericenter": 253.4853,
        "meta_mean_anomaly": 103.8137,
        "meta_ephemeris_type": 0,
        "meta_classification_type": "U",
        "meta_norad_cat_id": 37006,
        "meta_element_set_no": 999,
        "meta_rev_at_epoch": 65088,
        "meta_bstar": 0.0011963,
        "meta_mean_motion_dot": 6.798e-05,
        "meta_mean_motion_ddot": 0,
        "tle_line1": "1 37006U 99025ECN 25344.94271853  .00006798  00000+0  11963-2 0  9999",
        "tle_line2": "2 37006  99.2978 233.3229 0255426 253.4853 103.8137 14.48872350650882"
      },
      "geometry": {
        "type": "Point",
        "coordinates": [
          -126.88880457493755,
          23.174575965430606
        ]
      }
    },
    {
      "type": "Feature",
      "properties": {
        "norad_id": 37008,
        "name": "FENGYUN 1C DEB",
        "group": "fengyun-1c-debris",
        "lat": 1.5051345870189838,
        "lon": -72.48700262586021,
        "alt_km": 853.958349221919,
        "timestamp": "2025-12-14T09:36:23.325769+00:00",
        "meta_object_name": "FENGYUN 1C DEB",
        "meta_object_id": "1999-025ECQ",
        "meta_epoch": "2025-12-12T19:14:00.042432",
        "meta_mean_motion": 14.07932993,
        "meta_eccentricity": 0.00619822,
        "meta_inclination": 99.1348,
        "meta_ra_of_asc_node": 105.6536,
        "meta_arg_of_pericenter": 253.4379,
        "meta_mean_anomaly": 105.9976,
        "meta_ephemeris_type": 0,
        "meta_classification_type": "U",
        "meta_norad_cat_id": 37008,
        "meta_element_set_no": 999,
        "meta_rev_at_epoch": 60315,
        "meta_bstar": 0.0018430909,
        "meta_mean_motion_dot": 3.14e-05,
        "meta_mean_motion_ddot": 0,
        "tle_line1": "1 37008U 99025ECQ 25346.80138938  .00003140  00000+0  18431-2 0  9999",
        "tle_line2": "2 37008  99.1348 105.6536 0061982 253.4379 105.9976 14.07932993603158"
      },
      "geometry": {
        "type": "Point",
        "coordinates": [
          -72.48700262586021,
          1.5051345870189838
        ]
      }
    },
    {
      "type": "Feature",
      "properties": {
        "norad_id": 37017,
        "name": "FENGYUN 1C DEB",
        "group": "fengyun-1c-debris",
        "lat": -22.148077101406084,
        "lon": -63.42490375140852,
        "alt_km": 574.598487330185,
        "timestamp": "2025-12-14T09:36:23.325779+00:00",
        "meta_object_name": "FENGYUN 1C DEB",
        "meta_object_id": "1999-025ECZ",
        "meta_epoch": "2025-12-13T02:02:11.269824",
        "meta_mean_motion": 14.40690493,
        "meta_eccentricity": 0.02825013,
        "meta_inclination": 98.7925,
        "meta_ra_of_asc_node": 291.6095,
        "meta_arg_of_pericenter": 4.2343,
        "meta_mean_anomaly": 356.114,
        "meta_ephemeris_type": 0,
        "meta_classification_type": "U",
        "meta_norad_cat_id": 37017,
        "meta_element_set_no": 999,
        "meta_rev_at_epoch": 61166,
        "meta_bstar": 0.002666834,
        "meta_mean_motion_dot": 0.00013671,
        "meta_mean_motion_ddot": 0,
        "tle_line1": "1 37017U 99025ECZ 25347.08485266  .00013671  00000+0  26668-2 0  9990",
        "tle_line2": "2 37017  98.7925 291.6095 0282501   4.2343 356.1140 14.40690493611666"
      },
      "geometry": {
        "type": "Point",
        "coordinates": [
          -63.42490375140852,
          -22.148077101406084
        ]
      }
    },
    {
      "type": "Feature",
      "properties": {
        "norad_id": 37021,
        "name": "FENGYUN 1C DEB",
        "group": "fengyun-1c-debris",
        "lat": 32.390550162653184,
        "lon": -0.35080507128746563,
        "alt_km": 885.8627090961836,
        "timestamp": "2025-12-14T09:36:23.325790+00:00",
        "meta_object_name": "FENGYUN 1C DEB",
        "meta_object_id": "1999-025EDD",
        "meta_epoch": "2025-12-13T06:55:02.080128",
        "meta_mean_motion": 14.32276733,
        "meta_eccentricity": 0.01757239,
        "meta_inclination": 98.3859,
        "meta_ra_of_asc_node": 3.9428,
        "meta_arg_of_pericenter": 250.134,
        "meta_mean_anomaly": 170.9363,
        "meta_ephemeris_type": 0,
        "meta_classification_type": "U",
        "meta_norad_cat_id": 37021,
        "meta_element_set_no": 999,
        "meta_rev_at_epoch": 70062,
        "meta_bstar": 0.0011171883,
        "meta_mean_motion_dot": 3.529e-05,
        "meta_mean_motion_ddot": 0,
        "tle_line1": "1 37021U 99025EDD 25347.28821852  .00003529  00000+0  11172-2 0  9997",
        "tle_line2": "2 37021  98.3859   3.9428 0175723 250.1340 170.9363 14.32276733700625"
      },
      "geometry": {
        "type": "Point",
        "coordinates": [
          -0.35080507128746563,
          32.390550162653184
        ]
      }
    },
    {
      "type": "Feature",
      "properties": {
        "norad_id": 37028,
        "name": "FENGYUN 1C DEB",
        "group": "fengyun-1c-debris",
        "lat": -16.9985377369201,
        "lon": -100.94405130649636,
        "alt_km": 829.2058688585021,
        "timestamp": "2025-12-14T09:36:23.325800+00:00",
        "meta_object_name": "FENGYUN 1C DEB",
        "meta_object_id": "1999-025EDL",
        "meta_epoch": "2025-12-09T23:21:12.184416",
        "meta_mean_motion": 14.22702576,
        "meta_eccentricity": 0.00330412,
        "meta_inclination": 99.2453,
        "meta_ra_of_asc_node": 251.5588,
        "meta_arg_of_pericenter": 106.1234,
        "meta_mean_anomaly": 254.3583,
        "meta_ephemeris_type": 0,
        "meta_classification_type": "U",
        "meta_norad_cat_id": 37028,
        "meta_element_set_no": 999,
        "meta_rev_at_epoch": 60436,
        "meta_bstar": 0.0023776315,
        "meta_mean_motion_dot": 5.31e-05,
        "meta_mean_motion_ddot": 0,
        "tle_line1": "1 37028U 99025EDL 25343.97305769  .00005310  00000+0  23776-2 0  9993",
        "tle_line2": "2 37028  99.2453 251.5588 0033041 106.1234 254.3583 14.22702576604361"
      },
      "geometry": {
        "type": "Point",
        "coordinates": [
          -100.94405130649636,
          -16.9985377369201
        ]
      }
    },
    {
      "type": "Feature",
      "properties": {
        "norad_id": 37036,
        "name": "FENGYUN 1C DEB",
        "group": "fengyun-1c-debris",
        "lat": -11.922345295997589,
        "lon": -17.083690260536336,
        "alt_km": 843.1445042366804,
        "timestamp": "2025-12-14T09:36:23.325809+00:00",
        "meta_object_name": "FENGYUN 1C DEB",
        "meta_object_id": "1999-025EDU",
        "meta_epoch": "2025-12-10T16:41:53.236320",
        "meta_mean_motion": 14.03563948,
        "meta_eccentricity": 0.01243108,
        "meta_inclination": 98.7137,
        "meta_ra_of_asc_node": 337.5102,
        "meta_arg_of_pericenter": 60.8898,
        "meta_mean_anomaly": 300.4649,
        "meta_ephemeris_type": 0,
        "meta_classification_type": "U",
        "meta_norad_cat_id": 37036,
        "meta_element_set_no": 999,
        "meta_rev_at_epoch": 63719,
        "meta_bstar": 0.00069616367,
        "meta_mean_motion_dot": 1.128e-05,
        "meta_mean_motion_ddot": 0,
        "tle_line1": "1 37036U 99025EDU 25344.69575505  .00001128  00000+0  69616-3 0  9996",
        "tle_line2": "2 37036  98.7137 337.5102 0124310  60.8898 300.4649 14.03563948637192"
      },
      "geometry": {
        "type": "Point",
        "coordinates": [
          -17.083690260536336,
          -11.922345295997589
        ]
      }
    },
    {
      "type": "Feature",
      "properties": {
        "norad_id": 37044,
        "name": "FENGYUN 1C DEB",
        "group": "fengyun-1c-debris",
        "lat": -57.81134738811179,
        "lon": 108.90907979707264,
        "alt_km": 1301.1671403362507,
        "timestamp": "2025-12-14T09:36:23.325822+00:00",
        "meta_object_name": "FENGYUN 1C DEB",
        "meta_object_id": "1999-025EEC",
        "meta_epoch": "2025-12-09T12:32:45.701088",
        "meta_mean_motion": 13.70710675,
        "meta_eccentricity": 0.0509297,
        "meta_inclination": 98.9607,
        "meta_ra_of_asc_node": 89.8221,
        "meta_arg_of_pericenter": 169.8577,
        "meta_mean_anomaly": 191.3334,
        "meta_ephemeris_type": 0,
        "meta_classification_type": "U",
        "meta_norad_cat_id": 37044,
        "meta_element_set_no": 999,
        "meta_rev_at_epoch": 83814,
        "meta_bstar": 0.0046626,
        "meta_mean_motion_dot": 0.00010455,
        "meta_mean_motion_ddot": 0,
        "tle_line1": "1 37044U 99025EEC 25343.52275117  .00010455  00000+0  46626-2 0  9990",
        "tle_line2": "2 37044  98.9607  89.8221 0509297 169.8577 191.3334 13.70710675838149"
      },
      "geometry": {
        "type": "Point",
        "coordinates": [
          108.90907979707264,
          -57.81134738811179
        ]
      }
    }
  ]
}